#aV2021  4 22  0  0  0.00000000     288 DD+AD WGS84 FIT  NGA
## 2154 345600.00000000   300.00000000 59326 0.0000000000000
+   31     1  2  3  4  5  6  7  8  9 10 12 13 14 15 16 17 18
+         19 20 21 22 23 24 25 26 27 28 29 30 31 32  0  0  0
+          0  0  0  0  0  0  0  0  0  0  0  0  0  0  0  0  0
+          0  0  0  0  0  0  0  0  0  0  0  0  0  0  0  0  0
+          0  0  0  0  0  0  0  0  0  0  0  0  0  0  0  0  0
++         2  2  2  2  2  2  2  2  2  2  2  2  2  2  2  2  2
++         2  2  2  2  2  2  2  2  2  2  2  2  2  2  0  0  0
++         0  0  0  0  0  0  0  0  0  0  0  0  0  0  0  0  0
++         0  0  0  0  0  0  0  0  0  0  0  0  0  0  0  0  0
++         0  0  0  0  0  0  0  0  0  0  0  0  0  0  0  0  0
%c cc cc ccc ccc cccc cccc cccc cccc ccccc ccccc ccccc ccccc
%c cc cc ccc ccc cccc cccc cccc cccc ccccc ccccc ccccc ccccc
%f  0.0000000  0.000000000  0.00000000000  0.000000000000000
%f  0.0000000  0.000000000  0.00000000000  0.000000000000000
%i    0    0    0    0      0      0      0      0         0
%i    0    0    0    0      0      0      0      0         0
/*      NGA, ST. LOUIS,MO.                                  
/*   EPHEMERIS COMPUTED FROM 2 DAYS OF DATA                 
/*   EPOCHA v6 SMOOTHER                                     
/*   G2139 IERS2010 SATIGS SATAPC                           
*  2021  4 22 21 20  0.00000000
P  1  19563.447601  10325.829516  14701.338747    709.192044                    
V  1   9988.990910  16141.006826 -23876.059220     -0.102132                    
P  2 -12573.983388 -22398.177330   7306.066762   -598.017521                    
V  2   7408.248316   4738.112474  30020.746691     -0.033484                    
P  3  15970.588919   -326.439022  21118.370031   -144.174542                    
V  3 -10112.777554  25048.398246   8113.184796     -0.104954                    
P  4  25951.178643   1796.297131   5521.351115   -193.115005                    
V  4  -6753.663571   3240.551656  30674.617191     -0.018167                    
P  5  -8367.529587 -16208.102027 -19396.069610    -39.843216                    
V  5  10217.918967 -22180.151592  14419.658891     -0.010811                    
P  6  -2128.093340 -20988.436885  16161.728754      9.328269                    
V  6  13269.066658  15539.152149  22067.020321      0.030966                    
P  7  15708.323011  -3626.561224 -20841.906396    129.988551                    
V  7  15562.708744  22322.777265   7233.030559      0.113303                    
P  8  21971.140477   6596.861700 -13651.559937    -18.475565                    
V  8 -16807.418670   4050.097479 -24806.761776     -0.014425                    
P  9  25168.945047  -6916.800519  -5047.752056   -340.766695                    
V  9   6666.269917   2097.682338  30702.849710     -0.026280                    
P 10 -11576.010100  23663.828309  -1827.124334   -107.387332                    
V 10  -1591.558956  -3384.313607 -31987.588169     -0.077244                    
P 12 -14685.278126  -3564.126425  21575.515491    -31.352217                    
V 12  12581.227079 -24994.726805   4524.747087     -0.050986                    
P 13 -13993.655145 -13049.675866 -18609.244546    123.154252                    
V 13  23307.519391   -855.838834 -16919.419933      0.046420                    
P 14  13194.946447 -22896.386300  -2551.430524     93.895133                    
V 14   1216.821049   4190.215172 -31471.820643     -0.034000                    
P 15 -22771.012710  -4991.098317 -13405.673295   -154.357441                    
V 15  15362.416204  -6280.546001 -24061.694288      0.026195                    
P 16   3578.887136  19121.223240 -18112.500392   -313.829020                    
V 16 -12233.451842  19123.240463  18464.534770     -0.059329                    
P 17  14014.022187 -13237.639909  18696.421249    430.718914                    
V 17  22835.715785   -165.186632 -17638.611037      0.062051                    
P 18 -12824.409047   7940.211249 -21870.763641    351.519085                    
V 18 -15956.700721 -22675.633015   1064.544314     -0.002733                    
P 19   5063.571176 -14392.030079  21441.461171     -9.456795                    
V 19  27866.963017    288.767574  -6407.231221      0.050063                    
P 20 -16435.847299   2728.625115 -20627.092174    522.908790                    
V 20   5864.586553 -25692.113545  -8368.142394     -0.003693                    
P 21  20842.443587  14851.710667   8679.524094    112.949846                    
V 21   4811.989684   8934.733300 -28821.004532      0.028091                    
P 22  13109.494898  10019.355610  21034.262072   -631.717006                    
V 22  -8689.806232  24871.865914  -6303.691719      0.089568                    
P 23 -16124.869247  17157.521179 -12265.837945    111.929473                    
V 23   3703.612875 -15282.540470 -26329.932872     -0.023679                    
P 24 -20868.940157 -13523.896895   9619.982843     28.049477                    
V 24  -5838.712211 -11427.558299 -27623.136396      0.304429                    
P 25 -17305.792163  10706.689241  16655.652719    123.625656                    
V 25   6774.804029 -20782.074316  20347.325011      0.072279                    
P 26  -1732.027464  24486.905148  -9854.837160     75.742611                    
V 26  -7512.171703  10560.645361  27984.258215      0.051233                    
P 27  11562.423657  12667.873531 -20552.754808   -117.451684                    
V 27 -25324.104140   3546.102901 -11802.255331     -0.067548                    
P 28  11614.082215 -23962.334573   2048.279346    582.677350                    
V 28   2881.745477   -603.035281 -31756.504155     -0.059095                    
P 29 -25561.539526   4757.918101  -5585.134272   -334.625416                    
V 29  -7078.675572  -1674.268090  31194.958623     -0.065691                    
P 30   6073.139875 -16573.712832 -19725.324968   -416.454862                    
V 30  15752.383160  19877.653162 -12049.227255     -0.051446                    
P 31   3814.718170  22183.396000  13643.143349   -113.131251                    
V 31 -12302.398337 -12934.526770  24778.803057     -0.022148                    
P 32 -11239.221477  14833.292740  18994.026938     22.025919                    
V 32 -23965.615636   1397.067131 -15527.441880     -0.001783                    
EOF
